0 METEOR 2-17 DEB
1 28990U 88005E   22091.59005687  .00001365  00000-0  99267-3 0  9994
2 28990  82.5186  52.5876 0007616 271.3917  88.6377 13.95610793390660
0 METEOR 2-17 DEB
1 28989U 88005D   22092.10009013  .00003497  00000-0  23645-2 0  9991
2 28989  82.5342  42.5598 0027292 202.7097 157.2867 13.99911617444751
0 METEOR 2-17 DEB
1 28988U 88005C   22092.30472001  .00000960  00000-0  71578-3 0  9994
2 28988  82.5353  76.6604 0017870 310.3117  49.6487 13.93873074818203
0 METEOR 2-6 DEB
1 28987U 80073D   22091.55545354  .00006219  00000-0  22743-2 0  9990
2 28987  81.2187  32.7917 0028811 188.4194 171.6510 14.32622401921173
0 METEOR 2-6 DEB
1 28986U 80073C   22091.15892867  .00004354  00000-0  16729-2 0  9994
2 28986  81.2151  52.4259 0032566 262.7828  96.9651 14.30024028430015
0 PEGASUS R/B
1 28983U 06008D   22091.52453393  .00019565  28085-5  83274-3 0  9993
2 28983 105.5134 183.3957 1941374 324.4181  24.1348 11.51536307643455
0 ST5-C
1 28982U 06008C   22091.61425770  .00072903  35751-5  17332-2 0  9994
2 28982 105.5356 228.2339 1606184 170.4316 193.1662 12.30632738354176
0 ST5-B
1 28981U 06008B   22092.94956397  .00044839  39130-5  78453-3 0  9998
2 28981 105.4817  97.8858 1400627 212.6350 138.0127 12.79532386676557
0 ST5-A
1 28980U 06008A   22092.38993656  .00022484  25650-5  10310-2 0  9995
2 28980 105.5469 142.1611 1973558   3.0567 358.0691 11.43530371641645
0 NIMBUS 2 DEB
1 28978U 66040AP  22092.51057573  .00002350  00000-0  40465-2 0  9999
2 28978 100.4413 304.8420 0045017 134.4880 284.0930 13.45081436722782
0 NIMBUS 2 DEB
1 28977U 66040AN  22091.87993633  .00001849  00000-0  31868-2 0  9991
2 28977 100.4502 318.4248 0050845 166.5280 208.5545 13.45274890805530
0 METEOR 2-5 DEB
1 28974U 79095K   22091.05147603  .00005643  00000-0  25030-2 0  9990
2 28974  81.2074 215.0563 0029077 115.1526 245.2673 14.22721163836760
0 METEOR 2-5 DEB
1 28973U 79095J   22092.61068441  .00005259  00000-0  23469-2 0  9991
2 28973  81.2072 210.6652 0008305 310.3515  49.6937 14.22607787851711
0 METEOR 2-5 DEB
1 28972U 79095H   22092.28278885  .00021023  00000-0  39009-2 0  9992
2 28972  81.1799 298.9133 0016625 281.1612  78.7720 14.65044656396304
0 SL-18 DEB
1 28956U 93014AH  22092.23820488  .00040790  00000-0  48367-2 0  9997
2 28956  75.7378  81.2425 0074625 313.9205  45.5836 14.82312250953622
0 SL-18 DEB
1 28955U 93014AG  22092.63758001  .00062001  00000-0  59049-2 0  9999
2 28955  75.7364  61.0495 0064592 282.4751  76.9219 14.91490707460470
0 SL-18 DEB
1 28950U 93014AB  22091.64115049  .00114857  00000-0  90210-2 0  9995
2 28950  75.7312  48.1597 0064541 270.4867 264.8397 14.98667819472280
0 ASTRO F (AKARI)
1 28939U 06005A   22092.90475743  .00035318  00000-0  73528-3 0  9994
2 28939  98.2031 156.6020 0076828 183.9665 176.0981 15.42339556881423
0 H-2A R/B
1 28932U 06002B   22092.81262622  .00002940  00000-0  26813-3 0  9994
2 28932  98.3004 131.1497 0086689 340.8643  18.9324 14.93154812878852
0 ALOS
1 28931U 06002A   22092.46715233  .00000795  00000-0  16359-3 0  9995
2 28931  97.9270  60.2036 0001222 109.3189 250.8142 14.63054925863316
0 SL-8 R/B
1 28910U 05048C   22092.86033756  .00000042  00000-0  19871-3 0  9995
2 28910  82.4700 214.1996 0015955 284.2316 191.1314 12.54928602745696
0 GONETS D1M 1
1 28909U 05048B   22092.82826041  .00000029  00000-0  11701-3 0  9995
2 28909  82.4702 212.1108 0006983 359.2199   0.8876 12.55206677745929
0 COSMOS 2416
1 28908U 05048A   22092.87884841  .00000041  00000-0  18910-3 0  9994
2 28908  82.4715 210.0056 0007097   7.4492 116.6663 12.55516032746117
0 MOZ.5/SAFIR/RUBIN 5/SL-8
1 28898U 05043G   22092.90022085  .00000727  00000-0  15859-3 0  9995
2 28898  98.1528 218.0884 0020946 102.3131 258.0416 14.60652472498726
0 SSETI-EXPRESS DEB
1 28897U 05043H   22092.35344691  .00001557  00000-0  30122-3 0  9995
2 28897  98.0891 225.7980 0016082  16.9990  36.2019 14.64673567868973
0 CUBESAT XI 5
1 28895U 05043F   22091.30080508  .00001356  00000-0  26638-3 0  9995
2 28895  98.0930 223.9324 0017079  28.4118 331.8012 14.64169257876358
0 SSETI-EXPRESS
1 28894U 05043E   22091.78426838  .00000647  00000-0  13860-3 0  9991
2 28894  98.1105 217.9622 0018077  61.5476 298.7544 14.61820979875903
0 SINAH 1
1 28893U 05043D   22091.79080375  .00000433  00000-0  96249-4 0  9999
2 28893  98.0992 216.8885 0016167  56.2714 304.0026 14.61651277876010
0 UWE-1
1 28892U 05043C   22091.62463982  .00001402  00000-0  27555-3 0  9999
2 28892  98.1001 224.0346 0016582  28.7374 331.4739 14.64077167876244
0 TOPSAT
1 28891U 05043B   22091.08446714  .00000417  00000-0  93129-4 0  9998
2 28891  98.1129 216.3021 0017813  63.9618 296.3436 14.61578320875783
0 BEIJING 1 (TSINGHUA)
1 28890U 05043A   22092.47608836  .00000362  00000-0  82352-4 0  9991
2 28890  98.1053 216.3335 0016193  56.1607 304.1136 14.61406769876040
0 PSLV DEB
1 28859U 01049PM  22092.86626228  .00021994  00000-0  10823-2 0  9992
2 28859  97.6328 129.6687 0015503 357.3646   2.7503 15.17908622487148
0 PSLV DEB
1 28855U 01049PH  22091.22181062  .00008651  00000-0  78354-3 0  9998
2 28855  97.8656  85.8577 0002002  74.5839 285.5603 14.95616824 69652
0 PSLV DEB
1 28853U 01049PF  22091.80598587  .00003759  00000-0  44728-3 0  9996
2 28853  98.1293  95.8203 0034100 286.4944 198.8054 14.84597214476201
0 PSLV DEB
1 28852U 01049PE  22091.18304807  .00000761  00000-0  12438-3 0  9999
2 28852  98.2778  73.1601 0044172 194.8725 177.9487 14.73282067471982
0 PSLV DEB
1 28850U 01049PC  22092.00643238  .00245117  00000-0  28547-2 0  9996
2 28850  97.4740 164.6530 0005890 147.1079 213.0545 15.60855373972115
0 SL-24 DEB
1 28813U 05031E   22092.89390182  .00012140  00000-0  58366-3 0  9995
2 28813  98.0324 326.1390 0012927 145.9987 224.1635 15.18903327911720
0 SL-24 DEB
1 28812U 05031D   22092.69228834  .00008588  00000-0  61154-3 0  9996
2 28812  98.1533 254.6634 0010859  25.7411 344.8985 15.04839496905975
0 SL-24 R/B
1 28811U 05031C   22092.61829639  .00000107  00000-0  46446-4 0  9994
2 28811  97.7721 308.6489 0412192  90.1763 274.6631 14.00068058848537
0 INDEX
1 28810U 05031B   22091.41733988  .00002107  00000-0  21697-3 0  9993
2 28810  98.0639 152.2409 0027173 207.4663 152.5120 14.91145814900639
0 OICETS
1 28809U 05031A   22091.38759102  .00002581  00000-0  20572-3 0  9990
2 28809  98.0853 231.5432 0015602 248.6297 111.3261 15.01224783906399
0 SCOUT B DEB
1 28793U 65063C   22091.18195977  .00001123  00000-0  55891-2 0  9997
2 28793  69.2116 251.7844 0741723 178.0322 182.3897 12.08812575836929
0 CZ-2D DEB
1 28785U 05024G   22092.79420479  .00036419  00000-0  18962-2 0  9999
2 28785  97.8605 287.9035 0075439   9.7291 350.5379 15.13431081901343
0 ASTRO E2
1 28773U 05025A   22092.62672006  .00011100  00000-0  49578-3 0  9992
2 28773  31.3808  77.3483 0004500 312.1464  47.8801 15.20112497923479
0 CZ-2D DEB
1 28742U 05024F   22091.71586724  .00034906  00000-0  24614-2 0  9999
2 28742  97.8457 260.7340 0099742 148.4744 212.2509 15.00883998898467
0 CZ-2D DEB
1 28740U 05024D   22092.63561430  .00016164  00000-0  13547-2 0  9995
2 28740  97.9715 239.3526 0114403 328.1388  31.2944 14.93465903896298
0 CZ-2D DEB
1 28739U 05024C   22091.26029533  .00059444  00000-0  26362-2 0  9991
2 28739  97.6568 209.8458 0066115 230.8262 128.7088 15.19384785903108
0 CZ-2D R/B
1 28738U 05024B   22091.58644119  .00005731  00000-0  32530-3 0  9993
2 28738  97.3542 102.3768 0013359  85.6988 274.5770 15.13239911920123
0 SJ-7
1 28737U 05024A   22091.92062352  .00003859  00000-0  33772-3 0  9991
2 28737  97.7133  91.1253 0032384 217.9832 141.9106 14.96914212916548
0 SL-8 DEB
1 28706U 90017C   22092.89391277  .00000996  00000-0  86874-3 0  9991
2 28706  83.0898 158.5458 0086139  86.3609 274.7398 13.83194256845364
0 SCOUT G-1 DEB
1 28676U 88074M   22092.46394377  .00000095  00000-0  13863-3 0  9992
2 28676  89.9555   5.4914 0090222 352.0608   7.9107 13.46627030932521
0 SCOUT G-1 DEB
1 28675U 88074L   22091.99968789  .00000598  00000-0  89534-3 0  9998
2 28675  89.9802  10.7038 0085557 258.2607 111.3937 13.50806516858725
0 SCOUT G-1 DEB
1 28673U 88074J   22092.46626250  .00002476  00000-0  24600-2 0  9992
2 28673  89.8897 342.0578 0064793 231.9391 252.3691 13.77044152324037
0 SCOUT G-1 DEB
1 28672U 88074H   22091.55049947  .00000833  00000-0  11611-2 0  9995
2 28672  89.9863  11.4368 0091776 145.7889 339.5991 13.55145381422828
0 DELTA 1 DEB
1 28662U 65089G   22091.51100764  .00000841  00000-0  38719-2 0  9993
2 28662  59.4035 359.1924 0715337 178.5201 356.2373 12.21035683793734
0 NOAA 18
1 28654U 05018A   22091.43241925  .00000222  00000-0  14382-3 0  9990
2 28654  98.9551 161.9126 0014375 185.1442 174.9584 14.12706247869190
0 PSLV R/B
1 28651U 05017C   22092.77327348  .00000916  00000-0  14215-3 0  9993
2 28651  97.9368   7.4990 0072667 220.3901 139.1899 14.73825921908357
0 HAMSAT
1 28650U 05017B   22092.90207863  .00003512  00000-0  36638-3 0  9994
2 28650  97.8944  61.4349 0024360 106.2640 254.1260 14.90185521916669
0 CARTOSAT-1
1 28649U 05017A   22091.75981282  .00001234  00000-0  15441-3 0  9996
2 28649  97.7274 154.6040 0002812  99.6984 260.4548 14.83992441915385
0 TITAN 4B R/B
1 28647U 05016B   22091.53686338  .00003976  00000-0  24051-3 0  9995
2 28647  56.9960 102.7880 0117493 241.5059 117.4107 15.07281923158374
0 MINOTAUR R/B
1 28637U 05011B   22092.91945793  .00000045  00000-0  48323-4 0  9998
2 28637  98.7423 105.8299 0012630 327.8166  32.2234 14.11682329874563
0 NIMBUS 2 DEB
1 28621U 66040AM  22092.25068003  .00004815  00000-0  35599-2 0  9995
2 28621 100.2635  93.2080 0035834  56.7951 303.6634 13.95557631103000
0 NIMBUS 2 DEB
1 28620U 66040AK  22092.73804606  .00001921  00000-0  32935-2 0  9990
2 28620 100.3981 280.1265 0056360 109.7192 311.0282 13.45417057844645
0 NIMBUS 2 DEB
1 28619U 66040AJ  22091.37055537  .00003738  00000-0  43457-2 0  9997
2 28619 100.2969 120.7376 0046971 193.5284 181.8211 13.69044390903597
0 NIMBUS 2 DEB
1 28618U 66040AH  22091.02543597  .00004489  00000-0  48512-2 0  9997
2 28618 100.2497 112.7627 0054744 119.6896 269.4943 13.73124894943511
